FLOCK 4G-8              
1 62613U 25009E   26068.72381419  .00013559  00000+0  50438-3 0  9996
2 62613  97.4045 151.2834 0003050 315.2538  44.8455 15.27623414 63721
STARLINK-35787          
1 66978U 25288V   26068.25149283  .00024342  00000+0  89156-3 0  9993
2 66978  43.0028  25.6444 0001335 274.6201  85.4498 15.27565968 15226
